{"fetched_at":"2026-07-09T18:16:59.047Z","source":"https://celestrak.org/NORAD/elements/gp.php?NAME=EROS&FORMAT=JSON","constellation":"eros","records":[{"OBJECT_NAME":"EROS C3","OBJECT_ID":"2022-179A","EPOCH":"2026-07-08T20:02:57.798816","CLASSIFICATION_TYPE":"U","MEAN_MOTION":15.10997269,"ECCENTRICITY":0.00063012,"INCLINATION":139.3345,"RA_OF_ASC_NODE":128.5659,"ARG_OF_PERICENTER":131.8748,"MEAN_ANOMALY":228.2598,"EPHEMERIS_TYPE":0,"NORAD_CAT_ID":54880,"ELEMENT_SET_NO":999,"REV_AT_EPOCH":19560,"BSTAR":0.00018478234,"MEAN_MOTION_DOT":0.00003386,"MEAN_MOTION_DDOT":0}]}
