EROS C3                 
1 54880U 22179A   26189.83539119  .00003386  00000+0  18478-3 0  9991
2 54880 139.3345 128.5659 0006301 131.8748 228.2598 15.10997269195609
